
CARTOSAT-2C
1 41599U 16040A   26170.29997370  .00002607  00000+0  12698-3 0  9994
2 41599  97.4477 230.2494 0010158 124.8728 235.3463 15.19204759554035

CAS-2T & KS-1Q
1 41847U 16066G   26170.11066240  .00001331  00000+0  19362-3 0  9990
2 41847  98.3821 245.8251 0342842 123.6625 239.7766 14.44699826505072

COSMOS 2507 (RODNIK-S *)
1 40920U 15050A   26170.32508326  .00000141  00000+0  94852-3 0  9997
2 40920  82.4927  78.3396 0010119 352.4445   7.6480 12.42927102487121

COSMOS 2508 (RODNIK-S *)
1 40921U 15050B   26170.28012600  .00000066  00000+0  40223-3 0  9997
2 40921  82.4880  76.8719 0015102  22.6283 337.5460 12.42914294487104

COSMOS 2509 (RODNIK-S *)
1 40922U 15050C   26170.22001914  .00000103  00000+0  67459-3 0  9990
2 40922  82.4888  77.0118 0015658  38.9129 321.3074 12.42883928487138

DAMPE
1 41173U 15078A   26170.26018172  .00001111  00000+0  39870-4 0  9994
2 41173  97.4554 175.7375 0013777  70.5754 289.6975 15.30790281584863

ELEKTRO-L 2
1 41105U 15074A   26169.03651196 -.00000126  00000+0  00000+0 0  9991
2 41105   6.6975  70.5132 0000902 256.1704 298.2263  1.00270556 38515

FOX-1A (AO-85)
1 40967U 15058D   26170.29771999  .00001785  00000+0  16856-3 0  9993
2 40967  64.7756 272.4251 0130567  55.7770 305.5632 14.90977573113886

GAOFEN-3
1 41727U 16049A   26170.30407287  .00000162  00000+0  62431-4 0  9996
2 41727  98.4007 178.0585 0001433  98.6457 261.4895 14.42216180518957

HORYU-4
1 41340U 16012D   26170.06239089  .00441316  73851-4  93802-3 0  9997
2 41340  30.9841  65.2425 0006076 284.0603  75.9383 15.97473078571116

JILIN-1
1 40961U 15057D   26170.24711501  .00000621  00000+0  92333-4 0  9997
2 40961  97.6508 169.5115 0015352 255.5380 104.4128 14.78163223575913

LAPAN-A3
1 41603U 16040E   26170.27977263  .00002804  00000+0  89880-4 0  9994
2 41603  97.1490 166.3567 0010622  18.7688 341.3945 15.33115977555139

LINGQIAO VIDEO A
1 40959U 15057B   26170.25796256  .00000259  00000+0  43228-4 0  9991
2 40959  97.6619 164.9582 0015151 263.1448  96.8039 14.77394114575714

LINGQIAO VIDEO B
1 40960U 15057C   26170.30220832  .00001015  00000+0  14895-3 0  9999
2 40960  97.6585 166.1634 0015262 262.8958  97.0517 14.77503547575766

ORBCOMM FM108
1 41187U 15081J   26169.04056137  .00000258  00000+0  90814-4 0  9996
2 41187  47.0030 178.1625 0002987 224.9174 135.1471 14.58870752560204

ORBCOMM FM110
1 41182U 15081D   26170.22697866  .00000485  00000+0  13879-3 0  9990
2 41182  47.0032 351.7984 0002476  88.5041 271.6129 14.58883056557920

ORBCOMM FM112
1 41184U 15081F   26170.26575552  .00000392  00000+0  11904-3 0  9997
2 41184  46.9988 260.4183 0003844 226.3629 133.6938 14.58906904559252

ORBCOMM FM113
1 41185U 15081G   26170.24244790  .00000228  00000+0  84552-4 0  9991
2 41185  47.0007 260.9057 0002361 231.7554 128.3120 14.58860127559230

ORBCOMM FM116
1 41189U 15081L   26170.28774440  .00000409  00000+0  12261-3 0  9997
2 41189  47.0018 260.6896 0000519  88.7713 271.3233 14.58885951559241

ORBCOMM FM117
1 41188U 15081K   26170.17034884  .00000129  00000+0  63647-4 0  9999
2 41188  46.9991 171.4540 0003554 232.2319 127.8245 14.58865917560412

RESOURCESAT-2A
1 41877U 16074A   26170.25264255  .00000282  00000+0  14883-3 0  9990
2 41877  98.7526 243.7404 0003301  81.0045 279.1506 14.21617766494597

SINOD-D 1
1 40968U 15058E   26170.21760491  .00002436  00000+0  20239-3 0  9995
2 40968  64.7747 252.5544 0119176  52.2744 308.9100 14.95915852116963

YUNHAI-1 01
1 41857U 16068A   26170.33151797  .00000346  00000+0  14398-3 0  9998
2 41857  98.5839 181.3198 0005982  51.2618 308.9100 14.32424887502132

ZIYUAN 3-02 (ZY 3-02)
1 41556U 16033A   26170.29447748  .00004519  00000+0  20536-3 0  9992
2 41556  97.3833 246.0294 0012364 283.4186  76.5671 15.21196616558302
